[{"OBJECT_NAME":"ONEWEB-0248","OBJECT_ID":"2021-045AH","EPOCH":"2026-03-22T06:07:10.122528","MEAN_MOTION":13.15546706,"ECCENTRICITY":0.00021954,"INCLINATION":87.8938,"RA_OF_ASC_NODE":276.5389,"ARG_OF_PERICENTER":92.4766,"MEAN_ANOMALY":267.6615,"EPHEMERIS_TYPE":0,"CLASSIFICATION_TYPE":"U","NORAD_CAT_ID":48798,"ELEMENT_SET_NO":999,"REV_AT_EPOCH":23298,"BSTAR":-0.00024985558,"MEAN_MOTION_DOT":-8.1e-7,"MEAN_MOTION_DDOT":0},{"OBJECT_NAME":"ONEWEB-0225","OBJECT_ID":"2021-045AJ","EPOCH":"2026-03-22T06:39:07.402464","MEAN_MOTION":13.15549088,"ECCENTRICITY":0.00022105,"INCLINATION":87.8924,"RA_OF_ASC_NODE":276.5495,"ARG_OF_PERICENTER":102.205,"MEAN_ANOMALY":257.9328,"EPHEMERIS_TYPE":0,"CLASSIFICATION_TYPE":"U","NORAD_CAT_ID":48799,"ELEMENT_SET_NO":999,"REV_AT_EPOCH":23299,"BSTAR":0.00012210479,"MEAN_MOTION_DOT":5.9e-7,"MEAN_MOTION_DDOT":0},{"OBJECT_NAME":"ONEWEB-0215","OBJECT_ID":"2021-045AK","EPOCH":"2026-03-22T05:55:46.726176","MEAN_MOTION":13.1554965,"ECCENTRICITY":0.0002398,"INCLINATION":87.8938,"RA_OF_ASC_NODE":276.5297,"ARG_OF_PERICENTER":99.9894,"MEAN_ANOMALY":260.1507,"EPHEMERIS_TYPE":0,"CLASSIFICATION_TYPE":"U","NORAD_CAT_ID":48800,"ELEMENT_SET_NO":999,"REV_AT_EPOCH":23286,"BSTAR":-3.8367266e-5,"MEAN_MOTION_DOT":-2.0e-8,"MEAN_MOTION_DDOT":0},{"OBJECT_NAME":"ONEWEB-0216","OBJECT_ID":"2021-045AL","EPOCH":"2026-03-22T06:09:26.283744","MEAN_MOTION":13.15546742,"ECCENTRICITY":0.00016507,"INCLINATION":87.8927,"RA_OF_ASC_NODE":276.5459,"ARG_OF_PERICENTER":93.5984,"MEAN_ANOMALY":266.5335,"EPHEMERIS_TYPE":0,"CLASSIFICATION_TYPE":"U","NORAD_CAT_ID":48801,"ELEMENT_SET_NO":999,"REV_AT_EPOCH":23287,"BSTAR":-0.00020335173,"MEAN_MOTION_DOT":-6.4e-7,"MEAN_MOTION_DDOT":0},{"OBJECT_NAME":"ONEWEB-0239","OBJECT_ID":"2021-045AM","EPOCH":"2026-03-22T00:47:44.820096","MEAN_MOTION":13.15548686,"ECCENTRICITY":0.00025515,"INCLINATION":87.8924,"RA_OF_ASC_NODE":276.6044,"ARG_OF_PERICENTER":94.9361,"MEAN_ANOMALY":265.206,"EPHEMERIS_TYPE":0,"CLASSIFICATION_TYPE":"U","NORAD_CAT_ID":48802,"ELEMENT_SET_NO":999,"REV_AT_EPOCH":23288,"BSTAR":-0.00029759426,"MEAN_MOTION_DOT":-9.9e-7,"MEAN_MOTION_DDOT":0},{"OBJECT_NAME":"ONEWEB-0249","OBJECT_ID":"2021-060A","EPOCH":"2026-03-21T21:13:29.104032","MEAN_MOTION":13.16591968,"ECCENTRICITY":0.00018296,"INCLINATION":87.9015,"RA_OF_ASC_NODE":246.135,"ARG_OF_PERICENTER":96.4615,"MEAN_ANOMALY":263.6725,"EPHEMERIS_TYPE":0,"CLASSIFICATION_TYPE":"U","NORAD_CAT_ID":48967,"ELEMENT_SET_NO":999,"REV_AT_EPOCH":22812,"BSTAR":-1.4135635e-5,"MEAN_MOTION_DOT":7.0e-8,"MEAN_MOTION_DDOT":0},{"OBJECT_NAME":"ONEWEB-0250","OBJECT_ID":"2021-060B","EPOCH":"2026-03-22T03:24:36.434304","MEAN_MOTION":13.25828616,"ECCENTRICITY":0.00023271,"INCLINATION":87.9018,"RA_OF_ASC_NODE":244.1224,"ARG_OF_PERICENTER":73.9641,"MEAN_ANOMALY":286.1751,"EPHEMERIS_TYPE":0,"CLASSIFICATION_TYPE":"U","NORAD_CAT_ID":48968,"ELEMENT_SET_NO":999,"REV_AT_EPOCH":22868,"BSTAR":0.00013093885,"MEAN_MOTION_DOT":7.1e-7,"MEAN_MOTION_DDOT":0},{"OBJECT_NAME":"ONEWEB-0252","OBJECT_ID":"2021-060D","EPOCH":"2026-03-22T05:15:42.940800","MEAN_MOTION":13.16595459,"ECCENTRICITY":0.00016426,"INCLINATION":87.9015,"RA_OF_ASC_NODE":246.0608,"ARG_OF_PERICENTER":106.1215,"MEAN_ANOMALY":254.0097,"EPHEMERIS_TYPE":0,"CLASSIFICATION_TYPE":"U","NORAD_CAT_ID":48970,"ELEMENT_SET_NO":999,"REV_AT_EPOCH":22821,"BSTAR":0.00036348666,"MEAN_MOTION_DOT":1.52e-6,"MEAN_MOTION_DDOT":0},{"OBJECT_NAME":"ONEWEB-0253","OBJECT_ID":"2021-060E","EPOCH":"2026-03-22T04:59:45.198528","MEAN_MOTION":13.16596115,"ECCENTRICITY":0.0001807,"INCLINATION":87.9016,"RA_OF_ASC_NODE":246.0687,"ARG_OF_PERICENTER":97.3216,"MEAN_ANOMALY":262.812,"EPHEMERIS_TYPE":0,"CLASSIFICATION_TYPE":"U","NORAD_CAT_ID":48971,"ELEMENT_SET_NO":999,"REV_AT_EPOCH":22814,"BSTAR":5.6475016e-5,"MEAN_MOTION_DOT":3.4e-7,"MEAN_MOTION_DDOT":0},{"OBJECT_NAME":"ONEWEB-0254","OBJECT_ID":"2021-060F","EPOCH":"2026-03-22T05:13:26.413248","MEAN_MOTION":13.16594334,"ECCENTRICITY":0.00020577,"INCLINATION":87.9019,"RA_OF_ASC_NODE":246.0619,"ARG_OF_PERICENTER":96.7785,"MEAN_ANOMALY":263.358,"EPHEMERIS_TYPE":0,"CLASSIFICATION_TYPE":"U","NORAD_CAT_ID":48972,"ELEMENT_SET_NO":999,"REV_AT_EPOCH":22814,"BSTAR":7.3713235e-5,"MEAN_MOTION_DOT":4.1e-7,"MEAN_MOTION_DDOT":0},{"OBJECT_NAME":"ONEWEB-0255","OBJECT_ID":"2021-060G","EPOCH":"2026-03-22T04:18:41.925888","MEAN_MOTION":13.16591677,"ECCENTRICITY":0.00019394,"INCLINATION":87.9017,"RA_OF_ASC_NODE":246.0782,"ARG_OF_PERICENTER":98.5448,"MEAN_ANOMALY":261.5902,"EPHEMERIS_TYPE":0,"CLASSIFICATION_TYPE":"U","NORAD_CAT_ID":48973,"ELEMENT_SET_NO":999,"REV_AT_EPOCH":22821,"BSTAR":-0.00028936407,"MEAN_MOTION_DOT":-9.8e-7,"MEAN_MOTION_DDOT":0},{"OBJECT_NAME":"ONEWEB-0256","OBJECT_ID":"2021-060H","EPOCH":"2026-03-22T04:56:19.924224","MEAN_MOTION":13.16595378,"ECCENTRICITY":0.00015974,"INCLINATION":87.9018,"RA_OF_ASC_NODE":246.0806,"ARG_OF_PERICENTER":99.8877,"MEAN_ANOMALY":260.2434,"EPHEMERIS_TYPE":0,"CLASSIFICATION_TYPE":"U","NORAD_CAT_ID":48974,"ELEMENT_SET_NO":999,"REV_AT_EPOCH":22818,"BSTAR":0.0001018369,"MEAN_MOTION_DOT":5.2e-7,"MEAN_MOTION_DDOT":0},{"OBJECT_NAME":"ONEWEB-0257","OBJECT_ID":"2021-060J","EPOCH":"2026-03-22T03:53:38.290272","MEAN_MOTION":13.16594613,"ECCENTRICITY":0.00018265,"INCLINATION":87.9018,"RA_OF_ASC_NODE":246.0729,"ARG_OF_PERICENTER":101.4922,"MEAN_ANOMALY":258.6414,"EPHEMERIS_TYPE":0,"CLASSIFICATION_TYPE":"U","NORAD_CAT_ID":48975,"ELEMENT_SET_NO":999,"REV_AT_EPOCH":22813,"BSTAR":-4.871808e-5,"MEAN_MOTION_DOT":-6.0e-8,"MEAN_MOTION_DDOT":0},{"OBJECT_NAME":"ONEWEB-0258","OBJECT_ID":"2021-060K","EPOCH":"2026-03-22T03:55:55.072704","MEAN_MOTION":13.16597714,"ECCENTRICITY":0.00017563,"INCLINATION":87.9017,"RA_OF_ASC_NODE":246.0839,"ARG_OF_PERICENTER":96.0716,"MEAN_ANOMALY":264.0615,"EPHEMERIS_TYPE":0,"CLASSIFICATION_TYPE":"U","NORAD_CAT_ID":48976,"ELEMENT_SET_NO":999,"REV_AT_EPOCH":22814,"BSTAR":7.6197484e-5,"MEAN_MOTION_DOT":4.2e-7,"MEAN_MOTION_DDOT":0},{"OBJECT_NAME":"ONEWEB-0259","OBJECT_ID":"2021-060L","EPOCH":"2026-03-22T03:46:47.503200","MEAN_MOTION":13.1659458,"ECCENTRICITY":0.00018753,"INCLINATION":87.902,"RA_OF_ASC_NODE":246.0844,"ARG_OF_PERICENTER":97.0277,"MEAN_ANOMALY":263.1067,"EPHEMERIS_TYPE":0,"CLASSIFICATION_TYPE":"U","NORAD_CAT_ID":48977,"ELEMENT_SET_NO":999,"REV_AT_EPOCH":22817,"BSTAR":-0.0001273835,"MEAN_MOTION_DOT":-3.6e-7,"MEAN_MOTION_DDOT":0},{"OBJECT_NAME":"ONEWEB-0260","OBJECT_ID":"2021-060M","EPOCH":"2026-03-22T03:34:14.134944","MEAN_MOTION":13.16595531,"ECCENTRICITY":0.00014733,"INCLINATION":87.9018,"RA_OF_ASC_NODE":246.0921,"ARG_OF_PERICENTER":110.8887,"MEAN_ANOMALY":249.2402,"EPHEMERIS_TYPE":0,"CLASSIFICATION_TYPE":"U","NORAD_CAT_ID":48978,"ELEMENT_SET_NO":999,"REV_AT_EPOCH":22815,"BSTAR":3.7418298e-5,"MEAN_MOTION_DOT":2.7e-7,"MEAN_MOTION_DDOT":0}]
