ONEWEB-0248             
1 48798U 21045AH  26081.25497827 -.00000081  00000+0 -24986-3 0  9991
2 48798  87.8938 276.5389 0002195  92.4766 267.6615 13.15546706232987
ONEWEB-0225             
1 48799U 21045AJ  26081.27716901  .00000059  00000+0  12210-3 0  9991
2 48799  87.8924 276.5495 0002210 102.2050 257.9328 13.15549088232995
ONEWEB-0215             
1 48800U 21045AK  26081.24706859 -.00000002  00000+0 -38367-4 0  9994
2 48800  87.8938 276.5297 0002398  99.9894 260.1507 13.15549650232864
ONEWEB-0216             
1 48801U 21045AL  26081.25655421 -.00000064  00000+0 -20335-3 0  9997
2 48801  87.8927 276.5459 0001650  93.5984 266.5335 13.15546742232872
ONEWEB-0239             
1 48802U 21045AM  26081.03315764 -.00000099  00000+0 -29759-3 0  9994
2 48802  87.8924 276.6044 0002551  94.9361 265.2060 13.15548686232887
ONEWEB-0249             
1 48967U 21060A   26080.88436463  .00000007  00000+0 -14136-4 0  9997
2 48967  87.9015 246.1350 0001829  96.4615 263.6725 13.16591968228123
ONEWEB-0250             
1 48968U 21060B   26081.14208836  .00000071  00000+0  13094-3 0  9990
2 48968  87.9018 244.1224 0002327  73.9641 286.1751 13.25828616228681
ONEWEB-0252             
1 48970U 21060D   26081.21924700  .00000152  00000+0  36349-3 0  9994
2 48970  87.9015 246.0608 0001642 106.1215 254.0097 13.16595459228215
ONEWEB-0253             
1 48971U 21060E   26081.20816202  .00000034  00000+0  56475-4 0  9993
2 48971  87.9016 246.0687 0001807  97.3216 262.8120 13.16596115228145
ONEWEB-0254             
1 48972U 21060F   26081.21766682  .00000041  00000+0  73713-4 0  9993
2 48972  87.9019 246.0619 0002057  96.7785 263.3580 13.16594334228143
ONEWEB-0255             
1 48973U 21060G   26081.17965192 -.00000098  00000+0 -28936-3 0  9996
2 48973  87.9017 246.0782 0001939  98.5448 261.5902 13.16591677228210
ONEWEB-0256             
1 48974U 21060H   26081.20578616  .00000052  00000+0  10184-3 0  9996
2 48974  87.9018 246.0806 0001597  99.8877 260.2434 13.16595378228183
ONEWEB-0257             
1 48975U 21060J   26081.16224873 -.00000006  00000+0 -48718-4 0  9991
2 48975  87.9018 246.0729 0001826 101.4922 258.6414 13.16594613228139
ONEWEB-0258             
1 48976U 21060K   26081.16383186  .00000042  00000+0  76197-4 0  9995
2 48976  87.9017 246.0839 0001756  96.0716 264.0615 13.16597714228143
ONEWEB-0259             
1 48977U 21060L   26081.15749425 -.00000036  00000+0 -12738-3 0  9992
2 48977  87.9020 246.0844 0001875  97.0277 263.1067 13.16594580228171
ONEWEB-0260             
1 48978U 21060M   26081.14877471  .00000027  00000+0  37418-4 0  9996
2 48978  87.9018 246.0921 0001473 110.8887 249.2402 13.16595531228153
